OBJECT_NAME,OBJECT_ID,EPOCH,MEAN_MOTION,ECCENTRICITY,INCLINATION,RA_OF_ASC_NODE,ARG_OF_PERICENTER,MEAN_ANOMALY,EPHEMERIS_TYPE,CLASSIFICATION_TYPE,NORAD_CAT_ID,ELEMENT_SET_NO,REV_AT_EPOCH,BSTAR,MEAN_MOTION_DOT,MEAN_MOTION_DDOT
KUIPER-00053,2025-134P,2026-06-26T00:09:19.386432,14.81655184,.00006142,51.8996,103.2249,216.3839,143.7082,0,U,64513,999,5626,.28395479E-3,.2032E-4,0
KUIPER-00054,2025-134Q,2026-06-25T23:08:37.010400,14.79935859,.00011575,51.9000,99.2604,77.6745,282.4347,0,U,64514,999,5631,.18810618E-3,.1213E-4,0
KUIPER-00055,2025-134R,2026-06-25T20:19:14.232000,14.79962986,.00007478,51.9004,52.4060,77.7718,282.3328,0,U,64515,999,5696,-.23169398E-2,-.1785E-3,0
KUIPER-00056,2025-134S,2026-06-25T23:49:28.208640,14.79944166,.00009148,51.9014,104.2221,91.2627,268.8441,0,U,64516,999,5625,.60171749E-3,.437E-4,0
KUIPER-00057,2025-134T,2026-06-26T02:52:17.759136,14.79936658,.00009279,51.8992,111.0949,71.6999,288.4065,0,U,64517,999,5616,.2822941E-3,.1932E-4,0
KUIPER-00058,2025-134U,2026-06-25T22:56:57.471072,14.79935828,.00008168,51.9004,106.7880,106.5138,253.5914,0,U,64518,999,5621,.83804422E-4,.418E-5,0
KUIPER-00059,2025-134V,2026-06-26T02:19:09.753888,14.79928668,.00008442,51.8982,101.2078,111.0250,249.0803,0,U,64519,999,5630,-.31192192E-3,-.2598E-4,0
KUIPER-00060,2025-134W,2026-06-25T23:53:20.589216,14.79935698,.00007317,51.9011,101.7155,81.7264,278.3781,0,U,64520,999,5627,.58431342E-3,.4236E-4,0
KUIPER-00061,2025-134X,2026-06-26T00:30:20.607840,14.79934151,.00009308,51.8998,109.0573,84.1730,275.9339,0,U,64521,999,5617,.12401869E-3,.724E-5,0
KUIPER-00062,2025-134Y,2026-06-26T00:26:26.745504,14.79933022,.00008604,51.8952,111.5531,90.8005,269.3056,0,U,64522,999,5615,.26668759E-3,.1812E-4,0
KUIPER-00063,2025-134Z,2026-06-26T03:29:17.553120,14.79937181,.00008303,51.9011,118.5350,98.4033,261.7023,0,U,64523,999,5606,.37788903E-3,.2661E-4,0
KUIPER-00064,2025-134AA,2026-06-26T00:18:40.390272,14.79939775,.00008258,51.9015,116.5444,92.0908,268.0149,0,U,64524,999,5608,.24628258E-3,.1657E-4,0
KUIPER-00065,2025-134AB,2026-06-26T03:25:25.347936,14.79932093,.00008434,51.9020,121.1386,104.5784,255.5272,0,U,64525,999,5601,.2023622E-3,.1322E-4,0
KUIPER-00066,2025-134AC,2026-06-25T23:22:05.488896,14.79947680,.00006247,51.9010,59.1678,94.4380,265.6653,0,U,64526,999,5688,.59178749E-3,.4295E-4,0
COSMOS 2590,2025-131D,2026-06-25T13:12:49.305024,1.00230860,.3651626,0.4909,78.2403,22.8724,109.0284,0,U,64527,999,369,0,-.332E-5,0
GOOD ANCESTOR KILAKILA,2025-135A,2026-06-26T05:38:20.753952,15.24188831,.000592,97.4639,292.4241,142.9822,217.1825,0,U,64528,999,5626,.37174168E-3,.899E-4,0
GHGSAT-C12,2025-135B,2026-06-26T06:21:56.456064,15.20332786,.0006125,97.4754,291.9910,131.7031,228.4729,0,U,64529,999,5620,.18085614E-3,.3865E-4,0
DUTHSAT-2,2025-135C,2026-06-26T07:17:30.442848,15.27120365,.00058584,97.4625,293.2109,148.1685,211.9909,0,U,64530,999,5632,.52927217E-3,.14021E-3,0
TRANSPORTER-14 OBJECT D,2025-135D,2026-06-26T07:24:05.226912,15.26391946,.00055524,97.4723,293.5004,129.2765,230.8967,0,U,64531,999,5631,.4541638E-3,.11755E-3,0
TRANSPORTER-14 OBJECT E,2025-135E,2026-06-26T05:50:48.379200,15.26395208,.00056195,97.4739,293.4764,129.1860,230.9878,0,U,64532,999,5630,.47275419E-3,.12241E-3,0
TPA-1,2025-135F,2026-06-26T06:44:08.137536,15.21566832,.00059708,97.4693,292.1483,145.7859,214.3763,0,U,64533,999,5623,.202042E-3,.4486E-4,0
CONNECTA IOT-9,2025-135G,2026-06-26T06:31:12.764928,15.20002969,.00065646,97.4766,292.0674,130.0408,230.1404,0,U,64534,999,5620,.16359829E-3,.3456E-4,0
ROADS 1,2025-135H,2026-06-26T06:33:02.925792,15.22573308,.00055713,97.4682,292.2582,136.2475,223.9203,0,U,64535,999,5624,.30861107E-3,.7099E-4,0
FOSSASAT-2E21,2025-135J,2026-06-26T07:07:29.271648,15.20013859,.00052178,97.4653,291.5248,139.5858,220.5766,0,U,64536,999,5620,.1327398E-3,.2792E-4,0
OTTER PUP 2,2025-135K,2026-06-24T04:49:58.765440,15.22927690,.0007,97.4684,290.6816,137.1512,223.0271,0,U,64537,999,5594,.40559927E-4,.881E-5,0
IOD-2,2025-135L,2026-06-26T06:21:10.689984,15.20435369,.00057707,97.4707,291.7837,134.7100,225.4606,0,U,64538,999,5620,.22294909E-3,.4796E-4,0
ELARASAT MMS-1,2025-135M,2026-06-24T12:43:00.109632,15.22941971,.00051025,97.4817,291.0162,124.1058,236.0663,0,U,64539,999,5599,.36293765E-3,.8454E-4,0
ARCSTONE,2025-135N,2026-06-26T06:06:25.795872,15.33001222,.00039658,97.4621,294.8381,150.7193,209.4272,0,U,64540,999,5642,.66076818E-3,.21023E-3,0
PULSAR-0,2025-135P,2026-06-26T07:16:14.837664,15.20310223,.00040994,97.4708,291.8668,134.1681,225.9892,0,U,64541,999,5621,.15152633E-3,.3224E-4,0
T1DES 1 (DRAGOON 1),2025-135Q,2026-06-26T07:06:44.925984,15.26059192,.0004092,97.4708,293.4607,130.8624,229.2969,0,U,64542,999,5631,.4192521E-3,.10734E-3,0
