KUIPER-00053            
1 64513U 25134P   26177.00647438  .00002032  00000+0  28395-3 0  9995
2 64513  51.8996 103.2249 0000614 216.3839 143.7082 14.81655184 56260
KUIPER-00054            
1 64514U 25134Q   26176.96431725  .00001213  00000+0  18811-3 0  9992
2 64514  51.9000  99.2604 0001157  77.6745 282.4347 14.79935859 56312
KUIPER-00055            
1 64515U 25134R   26176.84669250 -.00017850  00000+0 -23169-2 0  9993
2 64515  51.9004  52.4060 0000747  77.7718 282.3328 14.79962986 56969
KUIPER-00056            
1 64516U 25134S   26176.99268760  .00004370  00000+0  60172-3 0  9998
2 64516  51.9014 104.2221 0000914  91.2627 268.8441 14.79944166 56259
KUIPER-00057            
1 64517U 25134T   26177.11964999  .00001932  00000+0  28229-3 0  9999
2 64517  51.8992 111.0949 0000927  71.6999 288.4065 14.79936658 56162
KUIPER-00058            
1 64518U 25134U   26176.95622073  .00000418  00000+0  83804-4 0  9994
2 64518  51.9004 106.7880 0000816 106.5138 253.5914 14.79935828 56213
KUIPER-00059            
1 64519U 25134V   26177.09664067 -.00002598  00000+0 -31192-3 0  9995
2 64519  51.8982 101.2078 0000844 111.0250 249.0803 14.79928668 56305
KUIPER-00060            
1 64520U 25134W   26176.99537719  .00004236  00000+0  58431-3 0  9992
2 64520  51.9011 101.7155 0000731  81.7264 278.3781 14.79935698 56272
KUIPER-00061            
1 64521U 25134X   26177.02107185  .00000724  00000+0  12402-3 0  9994
2 64521  51.8998 109.0573 0000930  84.1730 275.9339 14.79934151 56171
KUIPER-00062            
1 64522U 25134Y   26177.01836511  .00001812  00000+0  26669-3 0  9995
2 64522  51.8952 111.5531 0000860  90.8005 269.3056 14.79933022 56152
KUIPER-00063            
1 64523U 25134Z   26177.14534205  .00002661  00000+0  37789-3 0  9993
2 64523  51.9011 118.5350 0000830  98.4033 261.7023 14.79937181 56068
KUIPER-00064            
1 64524U 25134AA  26177.01296748  .00001657  00000+0  24628-3 0  9999
2 64524  51.9015 116.5444 0000825  92.0908 268.0149 14.79939775 56082
KUIPER-00065            
1 64525U 25134AB  26177.14265449  .00001322  00000+0  20236-3 0  9998
2 64525  51.9020 121.1386 0000843 104.5784 255.5272 14.79932093 56014
KUIPER-00066            
1 64526U 25134AC  26176.97367464  .00004295  00000+0  59179-3 0  9999
2 64526  51.9010  59.1678 0000624  94.4380 265.6653 14.79947680 56882
COSMOS 2590             
1 64527U 25131D   26176.55057066 -.00000332  00000+0  00000+0 0  9999
2 64527   0.4909  78.2403 3651626  22.8724 109.0284  1.00230860  3698
GOOD ANCESTOR KILAKILA  
1 64528U 25135A   26177.23496243  .00008990  00000+0  37174-3 0  9997
2 64528  97.4639 292.4241 0005920 142.9822 217.1825 15.24188831 56269
GHGSAT-C12              
1 64529U 25135B   26177.26523676  .00003865  00000+0  18086-3 0  9999
2 64529  97.4754 291.9910 0006125 131.7031 228.4729 15.20332786 56209
DUTHSAT-2               
1 64530U 25135C   26177.30382457  .00014021  00000+0  52927-3 0  9994
2 64530  97.4625 293.2109 0005858 148.1685 211.9909 15.27120365 56327
TRANSPORTER-14 OBJECT D 
1 64531U 25135D   26177.30839383  .00011755  00000+0  45416-3 0  9996
2 64531  97.4723 293.5004 0005552 129.2765 230.8967 15.26391946 56311
TRANSPORTER-14 OBJECT E 
1 64532U 25135E   26177.24361550  .00012241  00000+0  47275-3 0  9992
2 64532  97.4739 293.4764 0005619 129.1860 230.9878 15.26395208 56306
TPA-1                   
1 64533U 25135F   26177.28064974  .00004486  00000+0  20204-3 0  9992
2 64533  97.4693 292.1483 0005970 145.7859 214.3763 15.21566832 56231
CONNECTA IOT-9          
1 64534U 25135G   26177.27167552  .00003456  00000+0  16360-3 0  9992
2 64534  97.4766 292.0674 0006564 130.0408 230.1404 15.20002969 56201
ROADS 1                 
1 64535U 25135H   26177.27295053  .00007099  00000+0  30861-3 0  9990
2 64535  97.4682 292.2582 0005571 136.2475 223.9203 15.22573308 56241
FOSSASAT-2E21           
1 64536U 25135J   26177.29686657  .00002792  00000+0  13274-3 0  9991
2 64536  97.4653 291.5248 0005217 139.5858 220.5766 15.20013859 56200
OTTER PUP 2             
1 64537U 25135K   26175.20137460  .00000881  00000+0  40560-4 0  9990
2 64537  97.4684 290.6816 0007000 137.1512 223.0271 15.22927690 55947
IOD-2                   
1 64538U 25135L   26177.26470706  .00004796  00000+0  22295-3 0  9995
2 64538  97.4707 291.7837 0005770 134.7100 225.4606 15.20435369 56200
ELARASAT MMS-1          
1 64539U 25135M   26175.52986238  .00008454  00000+0  36294-3 0  9994
2 64539  97.4817 291.0162 0005102 124.1058 236.0663 15.22941971 55990
ARCSTONE                
1 64540U 25135N   26177.25446523  .00021023  00000+0  66077-3 0  9995
2 64540  97.4621 294.8381 0003965 150.7193 209.4272 15.33001222 56426
PULSAR-0                
1 64541U 25135P   26177.30294951  .00003224  00000+0  15153-3 0  9990
2 64541  97.4708 291.8668 0004099 134.1681 225.9892 15.20310223 56213
T1DES 1 (DRAGOON 1)     
1 64542U 25135Q   26177.29635331  .00010734  00000+0  41925-3 0  9990
2 64542  97.4708 293.4607 0004092 130.8624 229.2969 15.26059192 56312
